NORAD_CAT_ID,OBJECT_NAME,OBJECT_TYPE,EPOCH,MEAN_MOTION,ECCENTRICITY,INCLINATION,RA_OF_ASC_NODE,ARG_OF_PERICENTER,MEAN_ANOMALY,BSTAR,MEAN_MOTION_DOT,MEAN_MOTION_DDOT,TLE_LINE0,TLE_LINE1,TLE_LINE2,SEMIMAJOR_AXIS,PERIOD,APOGEE,PERIGEE,DECAYED
54182.0,STARLINK-5231,PAYLOAD,2023-03-08 22:00:00,15.2364116,0.0001184,53.2165,217.3491,71.9704,111.9746,-0.050948,-0.0114172,0.0,0 STARLINK-5231,1 54182U 22141AB  23067.91667824 -.01141720  00000-0 -50948-1 0  9996,2 54182  53.2165 217.3491 0001184  71.9704 111.9746 15.23641160  1305,6873.006,94.51,495.685,494.057,0.0
54182.0,STARLINK-5231,PAYLOAD,2023-03-09 22:00:00,15.21209569,0.0001085,53.2172,212.7651,72.6816,194.9714,-0.055638,-0.01158498,0.0,0 STARLINK-5231,1 54182U 22141AB  23068.91667824 -.01158498  00000-0 -55638-1 0  9998,2 54182  53.2172 212.7651 0001085  72.6816 194.9714 15.21209569 21097,6880.328,94.662,502.94,501.446,0.0
54182.0,STARLINK-5231,PAYLOAD,2023-03-10 00:00:00,15.21032614,9.63e-05,53.2172,212.3834,70.3188,293.9083,-0.058835,-0.01213818,0.0,0 STARLINK-5231,1 54182U 22141AB  23069.00001157 -.01213818  00000-0 -58835-1 0  9990,2 54182  53.2172 212.3834 0000963  70.3188 293.9083 15.21032614  1303,6880.862,94.673,503.389,502.064,0.0
54182.0,STARLINK-5231,PAYLOAD,2023-03-10 22:00:00,15.18770901,9.87e-05,53.2177,208.1984,73.2632,269.2999,-0.060138,-0.0116526,0.0,0 STARLINK-5231,1 54182U 22141AB  23069.91667824 -.01165260  00000-0 -60138-1 0  9995,2 54182  53.2177 208.1984 0000987  73.2632 269.2999 15.18770901 21240,6887.691,94.814,510.236,508.876,0.0
54182.0,STARLINK-5231,PAYLOAD,2023-03-11 14:00:01,15.17135034,0.0001075,53.2181,205.1632,81.8072,305.8799,-0.06323,-0.01168245,0.0,0 STARLINK-5231,1 54182U 22141AB  23070.58335648 -.01168245  00000-0 -63230-1 0  9998,2 54182  53.2181 205.1632 0001075  81.8072 305.8799 15.17135034  1305,6892.641,94.916,515.247,513.765,0.0
54182.0,STARLINK-5231,PAYLOAD,2023-03-11 22:00:00,15.16338298,0.0001109,53.2181,203.649,70.3469,338.3245,-0.06541,-0.01180129,0.0,0 STARLINK-5231,1 54182U 22141AB  23070.91667824 -.01180129  00000-0 -65410-1 0  9996,2 54182  53.2181 203.6490 0001109  70.3469 338.3245 15.16338298 21395,6895.056,94.966,517.685,516.156,0.0
54182.0,STARLINK-5231,PAYLOAD,2023-03-12 14:00:01,15.14693337,0.0001217,53.2184,200.6254,76.3618,11.503,-0.067607,-0.01165069,0.0,0 STARLINK-5231,1 54182U 22141AB  23071.58334491 -.01165069  00000-0 -67607-1 0  9997,2 54182  53.2184 200.6254 0001217  76.3618  11.5030 15.14693337  1302,6900.047,95.069,522.751,521.072,0.0
54182.0,STARLINK-5231,PAYLOAD,2023-03-13 00:00:00,15.13698012,0.0001254,53.2183,198.7392,81.3241,119.0373,-0.07165,-0.01197535,0.0,0 STARLINK-5231,1 54182U 22141AB  23072.00001157 -.01197535  00000-0 -71650-1 0  9991,2 54182  53.2183 198.7392 0001254  81.3241 119.0373 15.13698012  1308,6903.071,95.131,525.802,524.07,0.0
54182.0,STARLINK-5231,PAYLOAD,2023-03-13 06:00:00,15.13048491,0.0001222,53.2184,197.608,82.3676,40.7716,-0.068121,-0.01123897,0.0,0 STARLINK-5231,1 54182U 22141AB  23072.25001157 -.01123897  00000-0 -68121-1 0  9997,2 54182  53.2184 197.6080 0001222  82.3676  40.7716 15.13048491 21593,6905.047,95.172,527.755,526.068,0.0
54182.0,STARLINK-5231,PAYLOAD,2023-03-13 14:00:01,15.1224812,0.0001327,53.2184,196.1045,77.139,62.1687,-0.071955,-0.01157873,0.0,0 STARLINK-5231,1 54182U 22141AB  23072.58334491 -.01157873  00000-0 -71955-1 0  9993,2 54182  53.2184 196.1045 0001327  77.1390  62.1687 15.12248120  1301,6907.483,95.222,530.264,528.431,0.0
54182.0,STARLINK-5231,PAYLOAD,2023-03-13 22:00:00,15.11459536,0.0001342,53.2181,194.6012,74.5525,79.9364,-0.075756,-0.0118964,0.0,0 STARLINK-5231,1 54182U 22141AB  23072.91667824 -.01189640  00000-0 -75756-1 0  9999,2 54182  53.2181 194.6012 0001342  74.5525  79.9364 15.11459536 21699,6909.885,95.272,532.677,530.823,0.0
54182.0,STARLINK-5231,PAYLOAD,2023-03-14 14:00:01,15.09803931,0.0001362,53.2182,191.6006,79.766,102.1829,-0.076567,-0.0115149,0.0,0 STARLINK-5231,1 54182U 22141AB  23073.58334491 -.01151490  00000-0 -76567-1 0  9997,2 54182  53.2182 191.6006 0001362  79.7660 102.1829 15.09803931 21806,6914.936,95.377,537.742,535.859,0.0
54182.0,STARLINK-5231,PAYLOAD,2023-03-14 22:00:00,15.09018659,0.0001365,53.2179,190.1027,79.7627,114.4344,-0.081259,-0.01192228,0.0,0 STARLINK-5231,1 54182U 22141AB  23073.91667824 -.01192228  00000-0 -81259-1 0  9991,2 54182  53.2179 190.1027 0001365  79.7627 114.4344 15.09018659  1301,6917.334,95.426,540.144,538.255,0.0
54182.0,STARLINK-5231,PAYLOAD,2023-03-15 14:00:01,15.07203663,0.0001103,53.2178,187.1135,76.3701,139.4403,-0.00076681,-0.00011936,0.0,0 STARLINK-5231,1 54182U 22141AB  23074.58334491 -.00011936  00000-0 -76681-3 0  9996,2 54182  53.2178 187.1135 0001103  76.3701 139.4403 15.07203663  1304,6922.887,95.541,545.515,543.988,0.0
54182.0,STARLINK-5231,PAYLOAD,2023-03-15 22:00:00,15.07218829,0.0001057,53.2175,185.6206,75.7687,149.6612,-0.0024415,-0.00037267,0.0,0 STARLINK-5231,1 54182U 22141AB  23074.91667824 -.00037267  00000-0 -24415-2 0  9994,2 54182  53.2175 185.6206 0001057  75.7687 149.6612 15.07218829  1302,6922.84,95.54,545.437,543.973,0.0
54182.0,STARLINK-5231,PAYLOAD,2023-03-16 14:00:01,15.07226402,0.0001133,53.2175,182.6362,93.4029,151.2485,-0.0040334,-0.00061189,0.0,0 STARLINK-5231,1 54182U 22141AB  23075.58334491 -.00061189  00000-0 -40334-2 0  9997,2 54182  53.2175 182.6362 0001133  93.4029 151.2485 15.07226402  1307,6922.817,95.54,545.466,543.898,0.0
54182.0,STARLINK-5231,PAYLOAD,2023-03-16 22:00:00,15.07196018,0.0001073,53.2172,181.1431,97.4202,156.8584,0.00047554,6.961e-05,0.0,0 STARLINK-5231,1 54182U 22141AB  23075.91667824  .00006961  00000-0  47554-3 0  9990,2 54182  53.2172 181.1431 0001073  97.4202 156.8584 15.07196018 22151,6922.91,95.542,545.518,544.032,0.0
54182.0,STARLINK-5231,PAYLOAD,2023-03-17 14:00:01,15.07216051,0.00011,53.2175,178.1588,92.4054,181.0993,-0.0021904,-0.00033479,0.0,0 STARLINK-5231,1 54182U 22141AB  23076.58334491 -.00033479  00000-0 -21904-2 0  9991,2 54182  53.2175 178.1588 0001100  92.4054 181.0993 15.07216051  1302,6922.849,95.54,545.475,543.952,0.0
54182.0,STARLINK-5231,PAYLOAD,2023-03-17 22:00:00,15.07219694,0.0001029,53.2175,176.6656,88.0151,195.1219,-0.00023854,-3.914e-05,0.0,0 STARLINK-5231,1 54182U 22141AB  23076.91667824 -.00003914  00000-0 -23854-3 0  9995,2 54182  53.2175 176.6656 0001029  88.0151 195.1219 15.07219694  1303,6922.837,95.54,545.415,543.99,0.0
54182.0,STARLINK-5231,PAYLOAD,2023-03-18 06:00:00,15.07208047,0.0001092,53.2178,175.172,100.6203,192.1523,0.0032938,0.00050216,0.0,0 STARLINK-5231,1 54182U 22141AB  23077.25001157  .00050216  00000-0  32938-2 0  9991,2 54182  53.2178 175.1720 0001092 100.6203 192.1523 15.07208047 22354,6922.873,95.541,545.494,543.982,0.0
54182.0,STARLINK-5231,PAYLOAD,2023-03-18 22:00:00,15.07205122,0.0001088,53.2181,172.1879,102.9562,209.1342,-0.00026116,-4.256e-05,0.0,0 STARLINK-5231,1 54182U 22141AB  23077.91667824 -.00004256  00000-0 -26116-3 0  9990,2 54182  53.2181 172.1879 0001088 102.9562 209.1342 15.07205122 22458,6922.882,95.541,545.5,543.994,0.0
54182.0,STARLINK-5231,PAYLOAD,2023-03-19 10:56:39,15.07213832,0.0001295,53.2177,169.7709,107.346,252.7673,4.4877e-05,4e-06,0.0,0 STARLINK-5231,1 54182U 22141AB  23078.45601590  .00000400  00000-0  44877-4 0  9998,2 54182  53.2177 169.7709 0001295 107.3460 252.7673 15.07213832 22530,6922.855,95.541,545.617,543.824,0.0
54182.0,STARLINK-5231,PAYLOAD,2023-03-19 12:32:08,15.07214111,0.0001284,53.2183,169.4743,116.1514,243.961,7.9647e-05,9.3e-06,0.0,0 STARLINK-5231,1 54182U 22141AB  23078.52232553  .00000930  00000-0  79647-4 0  9996,2 54182  53.2183 169.4743 0001284 116.1514 243.9610 15.07214111 22318,6922.855,95.541,545.608,543.831,0.0
54182.0,STARLINK-5231,PAYLOAD,2023-03-19 17:18:36,15.07221682,0.0001307,53.2182,168.5832,113.4391,246.6738,0.0001309,1.711e-05,0.0,0 STARLINK-5231,1 54182U 22141AB  23078.72125318  .00001711  00000-0  13090-3 0  9995,2 54182  53.2182 168.5832 0001307 113.4391 246.6738 15.07221682 22575,6922.831,95.54,545.601,543.792,0.0
54182.0,STARLINK-5231,PAYLOAD,2023-03-20 12:24:29,15.07213786,0.0001189,53.2191,165.0213,91.9467,268.1661,-0.00012097,-2.125e-05,0.0,0 STARLINK-5231,1 54182U 22141AB  23079.51700802 -.00002125  00000-0 -12097-3 0  9998,2 54182  53.2191 165.0213 0001189  91.9467 268.1661 15.07213786 22695,6922.856,95.541,545.544,543.897,0.0
54182.0,STARLINK-5231,PAYLOAD,2023-03-20 15:35:27,15.07218807,0.0001231,53.2194,164.428,91.3823,268.7309,-5.914e-05,-1.184e-05,0.0,0 STARLINK-5231,1 54182U 22141AB  23079.64962608 -.00001184  00000-0 -59140-4 0  9991,2 54182  53.2194 164.4280 0001231  91.3823 268.7309 15.07218807 22484,6922.84,95.54,545.557,543.853,0.0
54182.0,STARLINK-5231,PAYLOAD,2023-03-21 12:16:49,15.0720725,0.000126,53.2201,160.5683,93.6882,266.4254,-4.3359e-05,-9.43e-06,0.0,0 STARLINK-5231,1 54182U 22141AB  23080.51168632 -.00000943  00000-0 -43359-4 0  9991,2 54182  53.2201 160.5683 0001260  93.6882 266.4254 15.07207250 22843,6922.876,95.541,545.613,543.868,0.0
54182.0,STARLINK-5231,PAYLOAD,2023-03-21 21:49:45,15.0720582,0.0001185,53.22,158.7865,101.2906,258.8219,-0.00010505,-1.882e-05,0.0,0 STARLINK-5231,1 54182U 22141AB  23080.90955996 -.00001882  00000-0 -10505-3 0  9990,2 54182  53.2200 158.7865 0001185 101.2906 258.8219 15.07205820 22670,6922.88,95.541,545.565,543.925,0.0
54182.0,STARLINK-5231,PAYLOAD,2023-03-22 04:11:43,15.07193777,0.0001318,53.2202,157.6005,102.0818,258.0321,1.8683e-05,1e-08,0.0,0 STARLINK-5231,1 54182U 22141AB  23081.17481260  .00000001  00000-0  18683-4 0  9994,2 54182  53.2202 157.6005 0001318 102.0818 258.0321 15.07193777 22948,6922.917,95.542,545.694,543.869,0.0
54182.0,STARLINK-5231,PAYLOAD,2023-03-22 15:20:08,15.07208758,0.0001001,53.2196,155.5178,109.6335,250.4764,4.4698e-05,3.97e-06,0.0,0 STARLINK-5231,1 54182U 22141AB  23081.63898692  .00000397  00000-0  44698-4 0  9999,2 54182  53.2196 155.5178 0001001 109.6335 250.4764 15.07208758 23016,6922.871,95.541,545.429,544.043,0.0
